start=new Date('2023-05-01T00:00:00.000Z').valueOf();
sats=[{"REF_FRAME":"TEME","RA_OF_ASC_NODE":"124.4180","FILE":"3897442","REV_AT_EPOCH":"15160","TLE_LINE2":"2 46062  53.0535 124.4180 0001883  66.9873 293.1315 15.06403617151600","MEAN_MOTION":"15.06403617","MEAN_MOTION_DOT":"0.00000392","DECAY_DATE":null,"MEAN_ELEMENT_THEORY":"SGP4","CENTER_NAME":"EARTH","TIME_SYSTEM":"UTC","GP_ID":"230973542","OBJECT_TYPE":"PAYLOAD","OBJECT_ID":"2020-055AM","APOAPSIS":"548.507","MEAN_MOTION_DDOT":"0.0000000000000","TLE_LINE1":"1 46062U 20055AM  23120.44426074  .00000392  00000-0  45197-4 0  9993","CLASSIFICATION_TYPE":"U","LAUNCH_DATE":"2020-08-07","NORAD_CAT_ID":"46062","ECCENTRICITY":"0.00018830","ELEMENT_SET_NO":"999","EPOCH":"2023-04-30T10:39:44.127936","SEMIMAJOR_AXIS":"6925.337","BSTAR":"0.00004519700000","COUNTRY_CODE":"US","EPHEMERIS_TYPE":"0","SITE":"AFETR","PERIAPSIS":"545.898","RCS_SIZE":"LARGE","INCLINATION":"53.0535","PERIOD":"95.592","MEAN_ANOMALY":"293.1315","ARG_OF_PERICENTER":"66.9873","OBJECT_NAME":"STARLINK-1574"},{"ELEMENT_SET_NO":"999","EPOCH":"2023-04-30T07:23:20.349024","ECCENTRICITY":"0.00017060","SEMIMAJOR_AXIS":"6925.354","BSTAR":"-0.00002748500000","COUNTRY_CODE":"US","EPHEMERIS_TYPE":"0","SITE":"AFETR","PERIAPSIS":"546.038","RCS_SIZE":"LARGE","MEAN_ANOMALY":"280.3132","INCLINATION":"53.0521","PERIOD":"95.592","OBJECT_NAME":"STARLINK-1577","ARG_OF_PERICENTER":"79.8049","REF_FRAME":"TEME","FILE":"3897442","RA_OF_ASC_NODE":"125.0274","MEAN_MOTION":"15.06398124","TLE_LINE2":"2 46063  53.0521 125.0274 0001706  79.8049 280.3132 15.06398124151611","REV_AT_EPOCH":"15161","DECAY_DATE":null,"MEAN_MOTION_DOT":"-0.00000691","MEAN_ELEMENT_THEORY":"SGP4","CENTER_NAME":"EARTH","TIME_SYSTEM":"UTC","OBJECT_TYPE":"PAYLOAD","GP_ID":"230974291","APOAPSIS":"548.401","MEAN_MOTION_DDOT":"0.0000000000000","OBJECT_ID":"2020-055AN","TLE_LINE1":"1 46063U 20055AN  23120.30787441 -.00000691  00000-0 -27485-4 0  9991","CLASSIFICATION_TYPE":"U","LAUNCH_DATE":"2020-08-07","NORAD_CAT_ID":"46063"},{"MEAN_ANOMALY":"296.9684","PERIOD":"95.592","INCLINATION":"53.0528","RCS_SIZE":"LARGE","OBJECT_NAME":"STARLINK-1583","ARG_OF_PERICENTER":"63.1420","SITE":"AFETR","PERIAPSIS":"546.426","EPHEMERIS_TYPE":"0","COUNTRY_CODE":"US","SEMIMAJOR_AXIS":"6925.338","ELEMENT_SET_NO":"999","EPOCH":"2023-04-30T09:46:39.118944","ECCENTRICITY":"0.00011230","BSTAR":"0.00021184000000","MEAN_MOTION_DDOT":"0.0000000000000","APOAPSIS":"547.981","OBJECT_ID":"2020-055AP","OBJECT_TYPE":"PAYLOAD","GP_ID":"230972541","NORAD_CAT_ID":"46064","LAUNCH_DATE":"2020-08-07","TLE_LINE1":"1 46064U 20055AP  23120.40739721  .00002876  00000-0  21184-3 0  9995","CLASSIFICATION_TYPE":"U","TIME_SYSTEM":"UTC","CENTER_NAME":"EARTH","MEAN_MOTION":"15.06403330","TLE_LINE2":"2 46064  53.0528 124.5811 0001123  63.1420 296.9684 15.06403330151635","REV_AT_EPOCH":"15163","FILE":"3897442","RA_OF_ASC_NODE":"124.5811","MEAN_ELEMENT_THEORY":"SGP4","DECAY_DATE":null,"MEAN_MOTION_DOT":"0.00002876","REF_FRAME":"TEME"},{"REF_FRAME":"TEME","MEAN_MOTION_DOT":"0.00001720","DECAY_DATE":null,"MEAN_ELEMENT_THEORY":"SGP4","RA_OF_ASC_NODE":"104.9049","FILE":"3897442","REV_AT_EPOCH":"15188","TLE_LINE2":"2 46065  53.0531 104.9049 0001298  96.9918 263.1218 15.06403989151880","MEAN_MOTION":"15.06403989","CENTER_NAME":"EARTH","TIME_SYSTEM":"UTC","LAUNCH_DATE":"2020-08-07","TLE_LINE1":"1 46065U 20055AQ  23120.33457806  .00001720  00000-0  13430-3 0  9991","CLASSIFICATION_TYPE":"U","NORAD_CAT_ID":"46065","GP_ID":"230972791","OBJECT_TYPE":"PAYLOAD","OBJECT_ID":"2020-055AQ","APOAPSIS":"548.100","MEAN_MOTION_DDOT":"0.0000000000000","BSTAR":"0.00013430000000","ECCENTRICITY":"0.00012980","EPOCH":"2023-04-30T08:01:47.544384","ELEMENT_SET_NO":"999","SEMIMAJOR_AXIS":"6925.336","COUNTRY_CODE":"US","EPHEMERIS_TYPE":"0","PERIAPSIS":"546.302","SITE":"AFETR","ARG_OF_PERICENTER":"96.9918","OBJECT_NAME":"STARLINK-1515","RCS_SIZE":"LARGE","PERIOD":"95.592","INCLINATION":"53.0531","MEAN_ANOMALY":"263.1218"},{"CENTER_NAME":"EARTH","TIME_SYSTEM":"UTC","NORAD_CAT_ID":"46066","TLE_LINE1":"1 46066U 20055AR  23120.33920583 -.00001452  00000-0 -78610-4 0  9995","LAUNCH_DATE":"2020-08-07","CLASSIFICATION_TYPE":"U","OBJECT_ID":"2020-055AR","APOAPSIS":"548.318","MEAN_MOTION_DDOT":"0.0000000000000","GP_ID":"230974041","OBJECT_TYPE":"PAYLOAD","REF_FRAME":"TEME","MEAN_ELEMENT_THEORY":"SGP4","MEAN_MOTION_DOT":"-0.00001452","DECAY_DATE":null,"TLE_LINE2":"2 46066  53.0514 104.8827 0001568  87.7916 272.3252 15.06393884151894","REV_AT_EPOCH":"15189","MEAN_MOTION":"15.06393884","RA_OF_ASC_NODE":"104.8827","FILE":"3897442","PERIAPSIS":"546.146","SITE":"AFETR","ARG_OF_PERICENTER":"87.7916","OBJECT_NAME":"STARLINK-1525","PERIOD":"95.593","INCLINATION":"53.0514","MEAN_ANOMALY":"272.3252","RCS_SIZE":"LARGE","BSTAR":"-0.00007861000000","SEMIMAJOR_AXIS":"6925.367","ECCENTRICITY":"0.00015680","ELEMENT_SET_NO":"999","EPOCH":"2023-04-30T08:08:27.383712","EPHEMERIS_TYPE":"0","COUNTRY_CODE":"US"},{"FILE":"3897442","RA_OF_ASC_NODE":"104.8631","MEAN_MOTION":"15.06394600","TLE_LINE2":"2 46067  53.0535 104.8631 0001362  89.4293 270.6852 15.06394600151906","REV_AT_EPOCH":"15190","DECAY_DATE":null,"MEAN_MOTION_DOT":"0.00001008","MEAN_ELEMENT_THEORY":"SGP4","REF_FRAME":"TEME","OBJECT_TYPE":"PAYLOAD","GP_ID":"230973792","MEAN_MOTION_DDOT":"0.0000000000000","APOAPSIS":"548.173","OBJECT_ID":"2020-055AS","CLASSIFICATION_TYPE":"U","TLE_LINE1":"1 46067U 20055AS  23120.34195165  .00001008  00000-0  86567-4 0  9992","LAUNCH_DATE":"2020-08-07","NORAD_CAT_ID":"46067","TIME_SYSTEM":"UTC","CENTER_NAME":"EARTH","COUNTRY_CODE":"US","EPHEMERIS_TYPE":"0","EPOCH":"2023-04-30T08:12:24.622560","ELEMENT_SET_NO":"999","ECCENTRICITY":"0.00013620","SEMIMAJOR_AXIS":"6925.365","BSTAR":"0.00008656700000","RCS_SIZE":"LARGE","MEAN_ANOMALY":"270.6852","PERIOD":"95.592","INCLINATION":"53.0535","OBJECT_NAME":"STARLINK-1529","ARG_OF_PERICENTER":"89.4293","SITE":"AFETR","PERIAPSIS":"546.287"},{"REF_FRAME":"TEME","MEAN_MOTION":"15.06401706","TLE_LINE2":"2 46068  53.0528 104.8147 0001489  87.4768 272.6391 15.06401706151902","REV_AT_EPOCH":"15190","FILE":"3897442","RA_OF_ASC_NODE":"104.8147","MEAN_ELEMENT_THEORY":"SGP4","DECAY_DATE":null,"MEAN_MOTION_DOT":"0.00003698","CENTER_NAME":"EARTH","TIME_SYSTEM":"UTC","MEAN_MOTION_DDOT":"0.0000000000000","APOAPSIS":"548.240","OBJECT_ID":"2020-055AT","OBJECT_TYPE":"PAYLOAD","GP_ID":"230973042","NORAD_CAT_ID":"46068","TLE_LINE1":"1 46068U 20055AT  23120.35300649  .00003698  00000-0  26700-3 0  9998","LAUNCH_DATE":"2020-08-07","CLASSIFICATION_TYPE":"U","SEMIMAJOR_AXIS":"6925.343","ELEMENT_SET_NO":"999","EPOCH":"2023-04-30T08:28:19.760736","ECCENTRICITY":"0.00014890","BSTAR":"0.00026700000000","EPHEMERIS_TYPE":"0","COUNTRY_CODE":"US","SITE":"AFETR","PERIAPSIS":"546.177","MEAN_ANOMALY":"272.6391","INCLINATION":"53.0528","PERIOD":"95.592","RCS_SIZE":"LARGE","OBJECT_NAME":"STARLINK-1532","ARG_OF_PERICENTER":"87.4768"},{"EPHEMERIS_TYPE":"0","COUNTRY_CODE":"US","BSTAR":"0.00009082800000","SEMIMAJOR_AXIS":"6925.352","ELEMENT_SET_NO":"999","EPOCH":"2023-04-30T10:26:27.878496","ECCENTRICITY":"0.00015830","OBJECT_NAME":"STARLINK-1533","ARG_OF_PERICENTER":"95.6598","MEAN_ANOMALY":"264.4571","INCLINATION":"53.0531","PERIOD":"95.592","RCS_SIZE":"LARGE","PERIAPSIS":"546.120","SITE":"AFETR","MEAN_ELEMENT_THEORY":"SGP4","DECAY_DATE":null,"MEAN_MOTION_DOT":"0.00001072","MEAN_MOTION":"15.06398962","TLE_LINE2":"2 46069  53.0531 104.4549 0001583  95.6598 264.4571 15.06398962151926","REV_AT_EPOCH":"15192","FILE":"3897442","RA_OF_ASC_NODE":"104.4549","REF_FRAME":"TEME","NORAD_CAT_ID":"46069","TLE_LINE1":"1 46069U 20055AU  23120.43504489  .00001072  00000-0  90828-4 0  9993","LAUNCH_DATE":"2020-08-07","CLASSIFICATION_TYPE":"U","APOAPSIS":"548.313","MEAN_MOTION_DDOT":"0.0000000000000","OBJECT_ID":"2020-055AU","OBJECT_TYPE":"PAYLOAD","GP_ID":"230973292","CENTER_NAME":"EARTH","TIME_SYSTEM":"UTC"},{"CENTER_NAME":"EARTH","TIME_SYSTEM":"UTC","APOAPSIS":"548.160","MEAN_MOTION_DDOT":"0.0000000000000","OBJECT_ID":"2020-055AV","OBJECT_TYPE":"PAYLOAD","GP_ID":"230973543","NORAD_CAT_ID":"46070","TLE_LINE1":"1 46070U 20055AV  23120.44978147  .00003104  00000-0  22719-3 0  9993","LAUNCH_DATE":"2020-08-07","CLASSIFICATION_TYPE":"U","REF_FRAME":"TEME","MEAN_MOTION":"15.06393168","REV_AT_EPOCH":"15192","TLE_LINE2":"2 46070  53.0526 104.3908 0001337  86.3655 273.7487 15.06393168151920","FILE":"3897442","RA_OF_ASC_NODE":"104.3908","MEAN_ELEMENT_THEORY":"SGP4","DECAY_DATE":null,"MEAN_MOTION_DOT":"0.00003104","SITE":"AFETR","PERIAPSIS":"546.309","MEAN_ANOMALY":"273.7487","INCLINATION":"53.0526","PERIOD":"95.593","RCS_SIZE":"LARGE","OBJECT_NAME":"STARLINK-1536","ARG_OF_PERICENTER":"86.3655","SEMIMAJOR_AXIS":"6925.369","ELEMENT_SET_NO":"999","EPOCH":"2023-04-30T10:47:41.119008","ECCENTRICITY":"0.00013370","BSTAR":"0.00022719000000","EPHEMERIS_TYPE":"0","COUNTRY_CODE":"US"},{"OBJECT_TYPE":"PAYLOAD","GP_ID":"230974292","APOAPSIS":"548.094","MEAN_MOTION_DDOT":"0.0000000000000","OBJECT_ID":"2020-055AW","TLE_LINE1":"1 46071U 20055AW  23120.33552156  .00000006  00000-0  19309-4 0  9990","CLASSIFICATION_TYPE":"U","LAUNCH_DATE":"2020-08-07","NORAD_CAT_ID":"46071","TIME_SYSTEM":"UTC","CENTER_NAME":"EARTH","FILE":"3897442","RA_OF_ASC_NODE":"104.9047","MEAN_MOTION":"15.06395881","REV_AT_EPOCH":"15190","TLE_LINE2":"2 46071  53.0540 104.9047 0001253  90.5797 269.5336 15.06395881151906","DECAY_DATE":null,"MEAN_MOTION_DOT":"0.00000006","MEAN_ELEMENT_THEORY":"SGP4","REF_FRAME":"TEME","RCS_SIZE":"LARGE","MEAN_ANOMALY":"269.5336","PERIOD":"95.592","INCLINATION":"53.0540","OBJECT_NAME":"STARLINK-1538","ARG_OF_PERICENTER":"90.5797","SITE":"AFETR","PERIAPSIS":"546.358","COUNTRY_CODE":"US","EPHEMERIS_TYPE":"0","EPOCH":"2023-04-30T08:03:09.062784","ELEMENT_SET_NO":"999","ECCENTRICITY":"0.00012530","SEMIMAJOR_AXIS":"6925.361","BSTAR":"0.00001930900000"}];
